[{"OBJECT_NAME":"STARLINK-34934","OBJECT_ID":"2025-224R","EPOCH":"2025-11-01T14:00:01.999872","MEAN_MOTION":15.49258368,"ECCENTRICITY":0.00012785,"INCLINATION":53.1593,"RA_OF_ASC_NODE":247.9736,"ARG_OF_PERICENTER":96.0671,"MEAN_ANOMALY":67.7167,"EPHEMERIS_TYPE":0,"CLASSIFICATION_TYPE":"U","NORAD_CAT_ID":65897,"ELEMENT_SET_NO":999,"REV_AT_EPOCH":524,"BSTAR":0.0010668178,"MEAN_MOTION_DOT":0.00059229,"MEAN_MOTION_DDOT":0},{"OBJECT_NAME":"STARLINK-34936","OBJECT_ID":"2025-224S","EPOCH":"2025-11-01T14:00:01.999872","MEAN_MOTION":15.49259392,"ECCENTRICITY":0.0001354,"INCLINATION":53.1593,"RA_OF_ASC_NODE":247.9779,"ARG_OF_PERICENTER":102.1521,"MEAN_ANOMALY":59.7155,"EPHEMERIS_TYPE":0,"CLASSIFICATION_TYPE":"U","NORAD_CAT_ID":65898,"ELEMENT_SET_NO":999,"REV_AT_EPOCH":529,"BSTAR":0.0010353336,"MEAN_MOTION_DOT":0.00057457,"MEAN_MOTION_DDOT":0},{"OBJECT_NAME":"STARLINK-35272","OBJECT_ID":"2025-224T","EPOCH":"2025-11-01T14:00:01.999872","MEAN_MOTION":15.49261651,"ECCENTRICITY":0.00010765,"INCLINATION":53.1594,"RA_OF_ASC_NODE":247.9685,"ARG_OF_PERICENTER":80.5605,"MEAN_ANOMALY":85.1375,"EPHEMERIS_TYPE":0,"CLASSIFICATION_TYPE":"U","NORAD_CAT_ID":65899,"ELEMENT_SET_NO":999,"REV_AT_EPOCH":528,"BSTAR":0.0010260499,"MEAN_MOTION_DOT":0.00056938,"MEAN_MOTION_DDOT":0},{"OBJECT_NAME":"STARLINK-35264","OBJECT_ID":"2025-224U","EPOCH":"2025-11-01T14:00:01.999872","MEAN_MOTION":15.49261007,"ECCENTRICITY":0.00011971,"INCLINATION":53.1593,"RA_OF_ASC_NODE":247.9649,"ARG_OF_PERICENTER":83.7946,"MEAN_ANOMALY":83.8116,"EPHEMERIS_TYPE":0,"CLASSIFICATION_TYPE":"U","NORAD_CAT_ID":65900,"ELEMENT_SET_NO":999,"REV_AT_EPOCH":528,"BSTAR":0.0014026134,"MEAN_MOTION_DOT":0.00078211,"MEAN_MOTION_DDOT":0},{"OBJECT_NAME":"STARLINK-35249","OBJECT_ID":"2025-224V","EPOCH":"2025-11-01T14:00:01.999872","MEAN_MOTION":15.49261304,"ECCENTRICITY":0.00011795,"INCLINATION":53.1592,"RA_OF_ASC_NODE":247.9614,"ARG_OF_PERICENTER":98.4626,"MEAN_ANOMALY":71.0659,"EPHEMERIS_TYPE":0,"CLASSIFICATION_TYPE":"U","NORAD_CAT_ID":65901,"ELEMENT_SET_NO":999,"REV_AT_EPOCH":527,"BSTAR":0.0010523713,"MEAN_MOTION_DOT":0.00058421,"MEAN_MOTION_DDOT":0},{"OBJECT_NAME":"STARLINK-35278","OBJECT_ID":"2025-224W","EPOCH":"2025-11-01T14:00:01.999872","MEAN_MOTION":15.49264104,"ECCENTRICITY":0.00010869,"INCLINATION":53.1592,"RA_OF_ASC_NODE":247.9491,"ARG_OF_PERICENTER":90.6853,"MEAN_ANOMALY":84.5917,"EPHEMERIS_TYPE":0,"CLASSIFICATION_TYPE":"U","NORAD_CAT_ID":65902,"ELEMENT_SET_NO":999,"REV_AT_EPOCH":529,"BSTAR":0.00091032937,"MEAN_MOTION_DOT":0.00050428,"MEAN_MOTION_DDOT":0},{"OBJECT_NAME":"STARLINK-35210","OBJECT_ID":"2025-224X","EPOCH":"2025-11-01T14:00:01.999872","MEAN_MOTION":15.4926361,"ECCENTRICITY":0.00011572,"INCLINATION":53.1591,"RA_OF_ASC_NODE":247.9535,"ARG_OF_PERICENTER":96.1449,"MEAN_ANOMALY":77.215,"EPHEMERIS_TYPE":0,"CLASSIFICATION_TYPE":"U","NORAD_CAT_ID":65903,"ELEMENT_SET_NO":999,"REV_AT_EPOCH":527,"BSTAR":0.0010283461,"MEAN_MOTION_DOT":0.00057071,"MEAN_MOTION_DDOT":0},{"OBJECT_NAME":"STARLINK-35348","OBJECT_ID":"2025-224Y","EPOCH":"2025-11-01T14:00:01.999872","MEAN_MOTION":15.49259286,"ECCENTRICITY":0.00011374,"INCLINATION":53.1594,"RA_OF_ASC_NODE":247.957,"ARG_OF_PERICENTER":81.7347,"MEAN_ANOMALY":89.7122,"EPHEMERIS_TYPE":0,"CLASSIFICATION_TYPE":"U","NORAD_CAT_ID":65904,"ELEMENT_SET_NO":999,"REV_AT_EPOCH":524,"BSTAR":0.0011833297,"MEAN_MOTION_DOT":0.00065804,"MEAN_MOTION_DDOT":0},{"OBJECT_NAME":"STARLINK-35380","OBJECT_ID":"2025-224Z","EPOCH":"2025-11-01T14:00:01.999872","MEAN_MOTION":15.4925827,"ECCENTRICITY":0.00010605,"INCLINATION":53.1591,"RA_OF_ASC_NODE":247.9463,"ARG_OF_PERICENTER":104.3812,"MEAN_ANOMALY":72.8177,"EPHEMERIS_TYPE":0,"CLASSIFICATION_TYPE":"U","NORAD_CAT_ID":65905,"ELEMENT_SET_NO":999,"REV_AT_EPOCH":524,"BSTAR":0.000997918,"MEAN_MOTION_DOT":0.00055346,"MEAN_MOTION_DDOT":0},{"OBJECT_NAME":"STARLINK-35385","OBJECT_ID":"2025-224AA","EPOCH":"2025-11-01T14:00:01.999872","MEAN_MOTION":15.49259842,"ECCENTRICITY":0.00011192,"INCLINATION":53.1591,"RA_OF_ASC_NODE":247.9377,"ARG_OF_PERICENTER":101.9318,"MEAN_ANOMALY":79.0923,"EPHEMERIS_TYPE":0,"CLASSIFICATION_TYPE":"U","NORAD_CAT_ID":65906,"ELEMENT_SET_NO":999,"REV_AT_EPOCH":527,"BSTAR":0.0015660997,"MEAN_MOTION_DOT":0.00087481,"MEAN_MOTION_DDOT":0},{"OBJECT_NAME":"STARLINK-35347","OBJECT_ID":"2025-224AB","EPOCH":"2025-11-01T14:00:01.999872","MEAN_MOTION":15.49261019,"ECCENTRICITY":0.00010863,"INCLINATION":53.1592,"RA_OF_ASC_NODE":247.9335,"ARG_OF_PERICENTER":79.7771,"MEAN_ANOMALY":103.1695,"EPHEMERIS_TYPE":0,"CLASSIFICATION_TYPE":"U","NORAD_CAT_ID":65907,"ELEMENT_SET_NO":999,"REV_AT_EPOCH":527,"BSTAR":0.0010956869,"MEAN_MOTION_DOT":0.00060862,"MEAN_MOTION_DDOT":0},{"OBJECT_NAME":"STARLINK-35329","OBJECT_ID":"2025-224AC","EPOCH":"2025-11-01T14:00:01.999872","MEAN_MOTION":15.49257317,"ECCENTRICITY":0.00011872,"INCLINATION":53.1591,"RA_OF_ASC_NODE":247.9414,"ARG_OF_PERICENTER":91.7748,"MEAN_ANOMALY":87.3368,"EPHEMERIS_TYPE":0,"CLASSIFICATION_TYPE":"U","NORAD_CAT_ID":65908,"ELEMENT_SET_NO":999,"REV_AT_EPOCH":528,"BSTAR":0.00132505,"MEAN_MOTION_DOT":0.0007381,"MEAN_MOTION_DDOT":0},{"OBJECT_NAME":"STARLINK-35387","OBJECT_ID":"2025-224AD","EPOCH":"2025-11-01T14:00:01.999872","MEAN_MOTION":15.49260498,"ECCENTRICITY":0.0001306,"INCLINATION":53.1592,"RA_OF_ASC_NODE":247.9291,"ARG_OF_PERICENTER":102.0727,"MEAN_ANOMALY":82.7837,"EPHEMERIS_TYPE":0,"CLASSIFICATION_TYPE":"U","NORAD_CAT_ID":65909,"ELEMENT_SET_NO":999,"REV_AT_EPOCH":524,"BSTAR":0.0015940314,"MEAN_MOTION_DOT":0.00089069,"MEAN_MOTION_DDOT":0},{"OBJECT_NAME":"STARLINK-35523","OBJECT_ID":"2025-225A","EPOCH":"2025-11-01T14:00:01.999872","MEAN_MOTION":15.51813016,"ECCENTRICITY":0.00011959,"INCLINATION":53.1606,"RA_OF_ASC_NODE":43.1483,"ARG_OF_PERICENTER":63.522,"MEAN_ANOMALY":178.4918,"EPHEMERIS_TYPE":0,"CLASSIFICATION_TYPE":"U","NORAD_CAT_ID":65910,"ELEMENT_SET_NO":999,"REV_AT_EPOCH":480,"BSTAR":-0.033991203,"MEAN_MOTION_DOT":-0.0183055,"MEAN_MOTION_DDOT":0},{"OBJECT_NAME":"STARLINK-35160","OBJECT_ID":"2025-225B","EPOCH":"2025-11-01T14:00:01.999872","MEAN_MOTION":15.51812599,"ECCENTRICITY":0.00012038,"INCLINATION":53.1603,"RA_OF_ASC_NODE":43.1451,"ARG_OF_PERICENTER":64.6334,"MEAN_ANOMALY":179.297,"EPHEMERIS_TYPE":0,"CLASSIFICATION_TYPE":"U","NORAD_CAT_ID":65911,"ELEMENT_SET_NO":999,"REV_AT_EPOCH":475,"BSTAR":-0.033931891,"MEAN_MOTION_DOT":-0.01827702,"MEAN_MOTION_DDOT":0},{"OBJECT_NAME":"STARLINK-35508","OBJECT_ID":"2025-225C","EPOCH":"2025-11-01T14:00:01.999872","MEAN_MOTION":15.518152,"ECCENTRICITY":0.00011911,"INCLINATION":53.1607,"RA_OF_ASC_NODE":43.1395,"ARG_OF_PERICENTER":64.6987,"MEAN_ANOMALY":181.1472,"EPHEMERIS_TYPE":0,"CLASSIFICATION_TYPE":"U","NORAD_CAT_ID":65912,"ELEMENT_SET_NO":999,"REV_AT_EPOCH":475,"BSTAR":-0.0340387,"MEAN_MOTION_DOT":-0.01832939,"MEAN_MOTION_DDOT":0}]
