STARLINK-34934          
1 65897U 25224R   25305.58335648  .00059229  00000+0  10668-2 0  9996
2 65897  53.1593 247.9736 0001278  96.0671  67.7167 15.49258368  5244
STARLINK-34936          
1 65898U 25224S   25305.58335648  .00057457  00000+0  10353-2 0  9999
2 65898  53.1593 247.9779 0001354 102.1521  59.7155 15.49259392  5291
STARLINK-35272          
1 65899U 25224T   25305.58335648  .00056938  00000+0  10260-2 0  9990
2 65899  53.1594 247.9685 0001076  80.5605  85.1375 15.49261651  5289
STARLINK-35264          
1 65900U 25224U   25305.58335648  .00078211  00000+0  14026-2 0  9995
2 65900  53.1593 247.9649 0001197  83.7946  83.8116 15.49261007  5281
STARLINK-35249          
1 65901U 25224V   25305.58335648  .00058421  00000+0  10524-2 0  9996
2 65901  53.1592 247.9614 0001179  98.4626  71.0659 15.49261304  5271
STARLINK-35278          
1 65902U 25224W   25305.58335648  .00050428  00000+0  91033-3 0  9991
2 65902  53.1592 247.9491 0001086  90.6853  84.5917 15.49264104  5297
STARLINK-35210          
1 65903U 25224X   25305.58335648  .00057071  00000+0  10283-2 0  9990
2 65903  53.1591 247.9535 0001157  96.1449  77.2150 15.49263610  5274
STARLINK-35348          
1 65904U 25224Y   25305.58335648  .00065804  00000+0  11833-2 0  9996
2 65904  53.1594 247.9570 0001137  81.7347  89.7122 15.49259286  5240
STARLINK-35380          
1 65905U 25224Z   25305.58335648  .00055346  00000+0  99792-3 0  9998
2 65905  53.1591 247.9463 0001060 104.3812  72.8177 15.49258270  5248
STARLINK-35385          
1 65906U 25224AA  25305.58335648  .00087481  00000+0  15661-2 0  9996
2 65906  53.1591 247.9377 0001119 101.9318  79.0923 15.49259842  5279
STARLINK-35347          
1 65907U 25224AB  25305.58335648  .00060862  00000+0  10957-2 0  9994
2 65907  53.1592 247.9335 0001086  79.7771 103.1695 15.49261019  5277
STARLINK-35329          
1 65908U 25224AC  25305.58335648  .00073810  00000+0  13250-2 0  9991
2 65908  53.1591 247.9414 0001187  91.7748  87.3368 15.49257317  5282
STARLINK-35387          
1 65909U 25224AD  25305.58335648  .00089069  00000+0  15940-2 0  9993
2 65909  53.1592 247.9291 0001306 102.0727  82.7837 15.49260498  5243
STARLINK-35523          
1 65910U 25225A   25305.58335648 -.01830550  00000+0 -33991-1 0  9993
2 65910  53.1606  43.1483 0001195  63.5220 178.4918 15.51813016  4802
STARLINK-35160          
1 65911U 25225B   25305.58335648 -.01827702  00000+0 -33932-1 0  9994
2 65911  53.1603  43.1451 0001203  64.6334 179.2970 15.51812599  4759
STARLINK-35508          
1 65912U 25225C   25305.58335648 -.01832939  00000+0 -34039-1 0  9992
2 65912  53.1607  43.1395 0001191  64.6987 181.1472 15.51815200  4752
